{
    "links": {
        "self": "http://www.neowsapp.com/rest/v1/neo/3799425?api_key=iIulBulltgU6a56xZRHN4H3l9WmuAYTsLGpBGhQ2"
    },
    "id": "3799425",
    "neo_reference_id": "3799425",
    "name": "(2018 CR3)",
    "designation": "2018 CR3",
    "nasa_jpl_url": "http://ssd.jpl.nasa.gov/sbdb.cgi?sstr=3799425",
    "absolute_magnitude_h": 25.6,
    "estimated_diameter": {
        "kilometers": {
            "estimated_diameter_min": 0.0201629919,
            "estimated_diameter_max": 0.0450858206
        },
        "meters": {
            "estimated_diameter_min": 20.1629919443,
            "estimated_diameter_max": 45.0858206172
        },
        "miles": {
            "estimated_diameter_min": 0.0125286985,
            "estimated_diameter_max": 0.0280150214
        },
        "feet": {
            "estimated_diameter_min": 66.1515504905,
            "estimated_diameter_max": 147.9193637137
        }
    },
    "is_potentially_hazardous_asteroid": false,
    "close_approach_data": [
        {
            "close_approach_date": "2016-08-31",
            "close_approach_date_full": "2016-Aug-31 17:10",
            "epoch_date_close_approach": 1472663400000,
            "relative_velocity": {
                "kilometers_per_second": "13.7416873741",
                "kilometers_per_hour": "49470.0745467949",
                "miles_per_hour": "30738.780487146"
            },
            "miss_distance": {
                "astronomical": "0.2477740363",
                "lunar": "96.3841001207",
                "kilometers": "37066468.071782681",
                "miles": "23032035.2501397578"
            },
            "orbiting_body": "Earth"
        },
        {
            "close_approach_date": "2018-02-13",
            "close_approach_date_full": "2018-Feb-13 23:36",
            "epoch_date_close_approach": 1518564960000,
            "relative_velocity": {
                "kilometers_per_second": "20.5322834395",
                "kilometers_per_hour": "73916.2203821521",
                "miles_per_hour": "45928.6648257878"
            },
            "miss_distance": {
                "astronomical": "0.0173474728",
                "lunar": "6.7481669192",
                "kilometers": "2595144.980762936",
                "miles": "1612548.3161870768"
            },
            "orbiting_body": "Earth"
        },
        {
            "close_approach_date": "2025-01-29",
            "close_approach_date_full": "2025-Jan-29 17:58",
            "epoch_date_close_approach": 1738173480000,
            "relative_velocity": {
                "kilometers_per_second": "30.5754156536",
                "kilometers_per_hour": "110071.4963529492",
                "miles_per_hour": "68394.1472755311"
            },
            "miss_distance": {
                "astronomical": "0.3108767492",
                "lunar": "120.9310554388",
                "kilometers": "46506499.512844204",
                "miles": "28897798.7885458552"
            },
            "orbiting_body": "Earth"
        },
        {
            "close_approach_date": "2084-02-04",
            "close_approach_date_full": "2084-Feb-04 14:36",
            "epoch_date_close_approach": 3600513360000,
            "relative_velocity": {
                "kilometers_per_second": "27.4257484258",
                "kilometers_per_hour": "98732.6943327191",
                "miles_per_hour": "61348.656653572"
            },
            "miss_distance": {
                "astronomical": "0.2096530151",
                "lunar": "81.5550228739",
                "kilometers": "31363644.498037837",
                "miles": "19488464.9989506706"
            },
            "orbiting_body": "Earth"
        }
    ],
    "orbital_data": {
        "orbit_id": "2",
        "orbit_determination_date": "2018-02-14 06:17:37",
        "first_observation_date": "2018-02-11",
        "last_observation_date": "2018-02-13",
        "data_arc_in_days": 2,
        "observations_used": 30,
        "orbit_uncertainty": "8",
        "minimum_orbit_intersection": ".00539755",
        "jupiter_tisserand_invariant": "4.407",
        "epoch_osculation": "2458161.5",
        "eccentricity": ".6473851605251915",
        "semi_major_axis": "1.443268961523759",
        "inclination": "3.125866235883537",
        "ascending_node_longitude": "149.9398000402862",
        "orbital_period": "633.3143589334919",
        "perihelion_distance": ".5089180531866739",
        "perihelion_argument": "97.6842170879172",
        "aphelion_distance": "2.377619869860844",
        "perihelion_time": "2458213.620670006872",
        "mean_anomaly": "330.3726262671957",
        "mean_motion": ".5684380827970549",
        "equinox": "J2000",
        "orbit_class": {
            "orbit_class_type": "APO",
            "orbit_class_description": "Near-Earth asteroid orbits which cross the Earth’s orbit similar to that of 1862 Apollo",
            "orbit_class_range": "a (semi-major axis) > 1.0 AU; q (perihelion) < 1.017 AU"
        }
    },
    "is_sentry_object": false
}